GLOBALSTAR M080         
1 38041U 11080B   26195.54766304 -.00000080  00000+0  13249-3 0  9994
2 38041  52.0069 295.7171 0000308  83.6856 289.7459 12.62257441672349
GLOBALSTAR M082         
1 38042U 11080C   26196.11818191 -.00000070  00000+0  18585-3 0  9998
2 38042  52.0061 249.4843 0000183  88.3542 288.7819 12.62264223673121
GLOBALSTAR M092         
1 38043U 11080D   26195.71483120 -.00000093  00000+0  60415-4 0  9999
2 38043  52.0105 341.1090 0000789 102.5494   0.1646 12.62267766671523
GLOBALSTAR M090         
1 38044U 11080E   26196.06333205 -.00000050  00000+0  29896-3 0  9997
2 38044  52.0106 243.6162 0000428  90.9724 275.5730 12.62269550673232
GLOBALSTAR M086         
1 38045U 11080F   26196.16989557 -.00000086  00000+0  98629-4 0  9996
2 38045  51.9879 243.1747 0001512 111.7031 283.0239 12.62287764673190
GLOBALSTAR M097         
1 39072U 13005A   26196.03567771 -.00000129  00000+0 -14019-3 0  9991
2 39072  52.0028 158.5617 0000434  39.8828 320.2070 12.62271393620426
GLOBALSTAR M093         
1 39073U 13005B   26196.16727898 -.00000121  00000+0 -95205-4 0  9993
2 39073  52.0089 151.5186 0000648  44.0148 316.0770 12.62266314620391
GLOBALSTAR M094         
1 39074U 13005C   26196.00876541 -.00000104  00000+0 -13186-5 0  9997
2 39074  51.9973  66.0909 0000990  62.0103 298.0864 12.62264165621987
GLOBALSTAR M096         
1 39075U 13005D   26196.18066088 -.00000102  00000+0  90279-5 0  9999
2 39075  52.0070 114.3905 0000742  41.7537 318.3386 12.62265715620921
GLOBALSTAR M078         
1 39076U 13005E   26196.15378781 -.00000114  00000+0 -57557-4 0  9998
2 39076  51.9844 198.4442 0000833 337.9625  22.1206 12.62260148619549
GLOBALSTAR M095         
1 39077U 13005F   26196.18046800 -.00000115  00000+0 -64804-4 0  9990
2 39077  52.0055 196.0066 0000448  12.1685 347.9192 12.62264146619401
GLOBALSTAR M087         
1 52888U 22064A   26195.71847679 -.00000102  00000+0  72038-5 0  9995
2 52888  52.0014 338.6352 0000913  85.5772 274.5199 12.62269295194614
